[{"OBJECT_NAME":"COSMOS 2251 DEB","OBJECT_ID":"1993-036UA","EPOCH":"2026-03-06T07:55:17.033664","MEAN_MOTION":14.32871437,"ECCENTRICITY":0.00693694,"INCLINATION":73.9763,"RA_OF_ASC_NODE":260.2702,"ARG_OF_PERICENTER":54.0568,"MEAN_ANOMALY":9.6379,"EPHEMERIS_TYPE":0,"CLASSIFICATION_TYPE":"U","NORAD_CAT_ID":34481,"ELEMENT_SET_NO":999,"REV_AT_EPOCH":88646,"BSTAR":0.00046874436,"MEAN_MOTION_DOT":1.289e-5,"MEAN_MOTION_DDOT":0},{"OBJECT_NAME":"COSMOS 2251 DEB","OBJECT_ID":"1993-036UB","EPOCH":"2026-03-06T10:06:21.145248","MEAN_MOTION":14.71592582,"ECCENTRICITY":0.0037614,"INCLINATION":74.0354,"RA_OF_ASC_NODE":61.2418,"ARG_OF_PERICENTER":104.1132,"MEAN_ANOMALY":61.1629,"EPHEMERIS_TYPE":0,"CLASSIFICATION_TYPE":"U","NORAD_CAT_ID":34482,"ELEMENT_SET_NO":999,"REV_AT_EPOCH":89417,"BSTAR":0.0021525639,"MEAN_MOTION_DOT":0.00013531,"MEAN_MOTION_DDOT":0},{"OBJECT_NAME":"COSMOS 2251 DEB","OBJECT_ID":"1993-036UE","EPOCH":"2026-03-06T16:58:08.154048","MEAN_MOTION":13.54824635,"ECCENTRICITY":0.0379994,"INCLINATION":73.9139,"RA_OF_ASC_NODE":68.085,"ARG_OF_PERICENTER":81.0347,"MEAN_ANOMALY":34.1071,"EPHEMERIS_TYPE":0,"CLASSIFICATION_TYPE":"U","NORAD_CAT_ID":34544,"ELEMENT_SET_NO":999,"REV_AT_EPOCH":84019,"BSTAR":0.00058118,"MEAN_MOTION_DOT":6.14e-6,"MEAN_MOTION_DDOT":0},{"OBJECT_NAME":"COSMOS 2251 DEB","OBJECT_ID":"1993-036UG","EPOCH":"2026-03-06T19:50:04.155936","MEAN_MOTION":14.45842016,"ECCENTRICITY":0.0020076,"INCLINATION":74.0282,"RA_OF_ASC_NODE":92.3448,"ARG_OF_PERICENTER":155.7254,"MEAN_ANOMALY":255.8592,"EPHEMERIS_TYPE":0,"CLASSIFICATION_TYPE":"U","NORAD_CAT_ID":34546,"ELEMENT_SET_NO":999,"REV_AT_EPOCH":89241,"BSTAR":0.00059035,"MEAN_MOTION_DOT":2.075e-5,"MEAN_MOTION_DDOT":0},{"OBJECT_NAME":"COSMOS 2251 DEB","OBJECT_ID":"1993-036UH","EPOCH":"2026-03-06T14:57:15.230880","MEAN_MOTION":14.74460677,"ECCENTRICITY":0.00162917,"INCLINATION":74.03,"RA_OF_ASC_NODE":297.1514,"ARG_OF_PERICENTER":353.198,"MEAN_ANOMALY":6.897,"EPHEMERIS_TYPE":0,"CLASSIFICATION_TYPE":"U","NORAD_CAT_ID":34547,"ELEMENT_SET_NO":999,"REV_AT_EPOCH":89757,"BSTAR":0.0015053942,"MEAN_MOTION_DOT":0.00010005,"MEAN_MOTION_DDOT":0},{"OBJECT_NAME":"COSMOS 2251 DEB","OBJECT_ID":"1993-036UP","EPOCH":"2026-03-06T09:03:34.940736","MEAN_MOTION":14.58777244,"ECCENTRICITY":0.00156233,"INCLINATION":74.0263,"RA_OF_ASC_NODE":32.6325,"ARG_OF_PERICENTER":94.0456,"MEAN_ANOMALY":62.471,"EPHEMERIS_TYPE":0,"CLASSIFICATION_TYPE":"U","NORAD_CAT_ID":34553,"ELEMENT_SET_NO":999,"REV_AT_EPOCH":89315,"BSTAR":0.0016280246,"MEAN_MOTION_DOT":7.599e-5,"MEAN_MOTION_DDOT":0},{"OBJECT_NAME":"COSMOS 2251 DEB","OBJECT_ID":"1993-036UQ","EPOCH":"2026-03-06T15:05:42.830016","MEAN_MOTION":14.3813106,"ECCENTRICITY":0.00234092,"INCLINATION":74.0387,"RA_OF_ASC_NODE":144.506,"ARG_OF_PERICENTER":194.2686,"MEAN_ANOMALY":328.2602,"EPHEMERIS_TYPE":0,"CLASSIFICATION_TYPE":"U","NORAD_CAT_ID":34554,"ELEMENT_SET_NO":999,"REV_AT_EPOCH":88961,"BSTAR":0.00036508965,"MEAN_MOTION_DOT":1.084e-5,"MEAN_MOTION_DDOT":0},{"OBJECT_NAME":"COSMOS 2251 DEB","OBJECT_ID":"1993-036US","EPOCH":"2026-03-06T03:37:20.853984","MEAN_MOTION":14.80847927,"ECCENTRICITY":0.00057201,"INCLINATION":74.0163,"RA_OF_ASC_NODE":320.5324,"ARG_OF_PERICENTER":350.8337,"MEAN_ANOMALY":159.7648,"EPHEMERIS_TYPE":0,"CLASSIFICATION_TYPE":"U","NORAD_CAT_ID":34556,"ELEMENT_SET_NO":999,"REV_AT_EPOCH":89562,"BSTAR":0.0018855767,"MEAN_MOTION_DOT":0.00014558,"MEAN_MOTION_DDOT":0},{"OBJECT_NAME":"COSMOS 2251 DEB","OBJECT_ID":"1993-036UW","EPOCH":"2026-03-06T03:57:36.918432","MEAN_MOTION":14.74558999,"ECCENTRICITY":0.00116666,"INCLINATION":74.019,"RA_OF_ASC_NODE":339.3379,"ARG_OF_PERICENTER":39.4514,"MEAN_ANOMALY":85.889,"EPHEMERIS_TYPE":0,"CLASSIFICATION_TYPE":"U","NORAD_CAT_ID":34560,"ELEMENT_SET_NO":999,"REV_AT_EPOCH":89480,"BSTAR":0.0019703205,"MEAN_MOTION_DOT":0.00013128,"MEAN_MOTION_DDOT":0},{"OBJECT_NAME":"COSMOS 2251 DEB","OBJECT_ID":"1993-036UZ","EPOCH":"2026-03-06T18:23:45.770208","MEAN_MOTION":14.46858432,"ECCENTRICITY":0.0011651,"INCLINATION":74.0388,"RA_OF_ASC_NODE":46.7821,"ARG_OF_PERICENTER":130.2277,"MEAN_ANOMALY":296.4371,"EPHEMERIS_TYPE":0,"CLASSIFICATION_TYPE":"U","NORAD_CAT_ID":34563,"ELEMENT_SET_NO":999,"REV_AT_EPOCH":89412,"BSTAR":0.00066821,"MEAN_MOTION_DOT":2.399e-5,"MEAN_MOTION_DDOT":0},{"OBJECT_NAME":"COSMOS 2251 DEB","OBJECT_ID":"1993-036VA","EPOCH":"2026-03-06T11:25:04.088928","MEAN_MOTION":14.4085627,"ECCENTRICITY":0.00187411,"INCLINATION":74.0304,"RA_OF_ASC_NODE":83.0678,"ARG_OF_PERICENTER":176.0632,"MEAN_ANOMALY":334.592,"EPHEMERIS_TYPE":0,"CLASSIFICATION_TYPE":"U","NORAD_CAT_ID":34564,"ELEMENT_SET_NO":999,"REV_AT_EPOCH":89212,"BSTAR":0.00029844087,"MEAN_MOTION_DOT":9.32e-6,"MEAN_MOTION_DDOT":0},{"OBJECT_NAME":"COSMOS 2251 DEB","OBJECT_ID":"1993-036VD","EPOCH":"2026-03-06T12:42:01.253952","MEAN_MOTION":14.2411519,"ECCENTRICITY":0.00723228,"INCLINATION":74.0443,"RA_OF_ASC_NODE":5.9619,"ARG_OF_PERICENTER":59.2399,"MEAN_ANOMALY":60.2382,"EPHEMERIS_TYPE":0,"CLASSIFICATION_TYPE":"U","NORAD_CAT_ID":34567,"ELEMENT_SET_NO":999,"REV_AT_EPOCH":88317,"BSTAR":0.00028789309,"MEAN_MOTION_DOT":6.56e-6,"MEAN_MOTION_DDOT":0},{"OBJECT_NAME":"COSMOS 2251 DEB","OBJECT_ID":"1993-036VF","EPOCH":"2026-03-06T09:14:16.918656","MEAN_MOTION":14.25038256,"ECCENTRICITY":0.01591457,"INCLINATION":73.9904,"RA_OF_ASC_NODE":46.8425,"ARG_OF_PERICENTER":216.9268,"MEAN_ANOMALY":297.1594,"EPHEMERIS_TYPE":0,"CLASSIFICATION_TYPE":"U","NORAD_CAT_ID":34569,"ELEMENT_SET_NO":999,"REV_AT_EPOCH":88159,"BSTAR":0.0005817979,"MEAN_MOTION_DOT":1.528e-5,"MEAN_MOTION_DDOT":0},{"OBJECT_NAME":"COSMOS 2251 DEB","OBJECT_ID":"1993-036VG","EPOCH":"2026-03-06T11:04:20.397216","MEAN_MOTION":13.99994557,"ECCENTRICITY":0.01924193,"INCLINATION":73.9559,"RA_OF_ASC_NODE":72.6555,"ARG_OF_PERICENTER":297.1223,"MEAN_ANOMALY":215.9816,"EPHEMERIS_TYPE":0,"CLASSIFICATION_TYPE":"U","NORAD_CAT_ID":34570,"ELEMENT_SET_NO":999,"REV_AT_EPOCH":86772,"BSTAR":0.00085967093,"MEAN_MOTION_DOT":1.458e-5,"MEAN_MOTION_DDOT":0},{"OBJECT_NAME":"COSMOS 2251 DEB","OBJECT_ID":"1993-036VH","EPOCH":"2026-03-05T22:15:30.989664","MEAN_MOTION":14.50706484,"ECCENTRICITY":0.00583684,"INCLINATION":74.0407,"RA_OF_ASC_NODE":26.292,"ARG_OF_PERICENTER":40.1741,"MEAN_ANOMALY":320.3712,"EPHEMERIS_TYPE":0,"CLASSIFICATION_TYPE":"U","NORAD_CAT_ID":34571,"ELEMENT_SET_NO":999,"REV_AT_EPOCH":88499,"BSTAR":0.0031896513,"MEAN_MOTION_DOT":0.00012813,"MEAN_MOTION_DDOT":0},{"OBJECT_NAME":"COSMOS 2251 DEB","OBJECT_ID":"1993-036VJ","EPOCH":"2026-03-06T03:02:38.245056","MEAN_MOTION":14.51771226,"ECCENTRICITY":0.00604536,"INCLINATION":74.0103,"RA_OF_ASC_NODE":318.4294,"ARG_OF_PERICENTER":11.6288,"MEAN_ANOMALY":142.6271,"EPHEMERIS_TYPE":0,"CLASSIFICATION_TYPE":"U","NORAD_CAT_ID":34572,"ELEMENT_SET_NO":999,"REV_AT_EPOCH":88587,"BSTAR":0.0018778716,"MEAN_MOTION_DOT":7.711e-5,"MEAN_MOTION_DDOT":0}]
